{
    "links": {
        "self": "http://www.neowsapp.com/rest/v1/neo/3648981?api_key=iIulBulltgU6a56xZRHN4H3l9WmuAYTsLGpBGhQ2"
    },
    "id": "3648981",
    "neo_reference_id": "3648981",
    "name": "(2013 TR12)",
    "designation": "2013 TR12",
    "nasa_jpl_url": "http://ssd.jpl.nasa.gov/sbdb.cgi?sstr=3648981",
    "absolute_magnitude_h": 28.5,
    "estimated_diameter": {
        "kilometers": {
            "estimated_diameter_min": 0.0053034072,
            "estimated_diameter_max": 0.0118587791
        },
        "meters": {
            "estimated_diameter_min": 5.3034072332,
            "estimated_diameter_max": 11.8587790858
        },
        "miles": {
            "estimated_diameter_min": 0.0032953835,
            "estimated_diameter_max": 0.0073687014
        },
        "feet": {
            "estimated_diameter_min": 17.3996305869,
            "estimated_diameter_max": 38.9067567758
        }
    },
    "is_potentially_hazardous_asteroid": false,
    "close_approach_data": [
        {
            "close_approach_date": "2013-10-04",
            "close_approach_date_full": "2013-Oct-04 03:59",
            "epoch_date_close_approach": 1380859140000,
            "relative_velocity": {
                "kilometers_per_second": "14.8398214223",
                "kilometers_per_hour": "53423.3571203606",
                "miles_per_hour": "33195.196539593"
            },
            "miss_distance": {
                "astronomical": "0.0027459457",
                "lunar": "1.0681728773",
                "kilometers": "410787.627855659",
                "miles": "255251.5957757342"
            },
            "orbiting_body": "Moon"
        },
        {
            "close_approach_date": "2013-10-04",
            "close_approach_date_full": "2013-Oct-04 09:52",
            "epoch_date_close_approach": 1380880320000,
            "relative_velocity": {
                "kilometers_per_second": "14.4984410356",
                "kilometers_per_hour": "52194.387728147",
                "miles_per_hour": "32431.5627525256"
            },
            "miss_distance": {
                "astronomical": "0.0014343246",
                "lunar": "0.5579522694",
                "kilometers": "214571.905048602",
                "miles": "133328.7992586276"
            },
            "orbiting_body": "Earth"
        }
    ],
    "orbital_data": {
        "orbit_id": "4",
        "orbit_determination_date": "2017-04-06 08:44:17",
        "first_observation_date": "2013-10-05",
        "last_observation_date": "2013-10-07",
        "data_arc_in_days": 2,
        "observations_used": 22,
        "orbit_uncertainty": "8",
        "minimum_orbit_intersection": ".000362922",
        "jupiter_tisserand_invariant": "3.677",
        "epoch_osculation": "2456571.5",
        "eccentricity": ".5672814959049809",
        "semi_major_axis": "1.939315504264299",
        "inclination": "8.823348240232292",
        "ascending_node_longitude": "11.14497390698222",
        "orbital_period": "986.441037197535",
        "perihelion_distance": ".8391777039735252",
        "perihelion_argument": "303.5576250145046",
        "aphelion_distance": "3.039453304555073",
        "perihelion_time": "2456530.204090215620",
        "mean_anomaly": "15.07087292780559",
        "mean_motion": ".3649483207052647",
        "equinox": "J2000",
        "orbit_class": {
            "orbit_class_type": "APO",
            "orbit_class_description": "Near-Earth asteroid orbits which cross the Earth’s orbit similar to that of 1862 Apollo",
            "orbit_class_range": "a (semi-major axis) > 1.0 AU; q (perihelion) < 1.017 AU"
        }
    },
    "is_sentry_object": false
}